GONETS-M 17             
1 46486U 20068A   26132.30733176  .00000034  00000+0  17554-3 0  9999
2 46486  82.5019   9.8250 0023233 111.9884 248.3668 12.42871798254708
GONETS-M 18             
1 46487U 20068B   26132.27098517 -.00000093  00000+0 -74615-3 0  9997
2 46487  82.4972   8.9791 0020579 108.3490 251.9830 12.42870499254684
GONETS-M 19             
1 46488U 20068C   26132.24694182  .00000003  00000+0 -47085-4 0  9997
2 46488  82.4997   9.4379 0014118 121.8783 238.3673 12.42890933254787
DEKART                  
1 46493U 20068H   26132.26741876  .00007761  00000+0  22002-3 0  9996
2 46493  97.8757 138.9900 0010647  60.6227 299.6078 15.36503967310259
NORBI                   
1 46494U 20068J   26132.27273838  .00013956  00000+0  27889-3 0  9997
2 46494  97.8651 145.1169 0007660  45.1639 315.0231 15.46909066310655
SALSAT                  
1 46495U 20068K   26131.96718549  .00005046  00000+0  18044-3 0  9990
2 46495  97.8861 132.8439 0011562  73.9396 286.3115 15.29256423309828
ICEYE-X6                
1 46497U 20068M   26132.27476613  .00001415  00000+0  10638-3 0  9997
2 46497  98.0964 124.2385 0006493 199.6700 160.4275 15.04322409307833
NETSAT-4                
1 46504U 20068U   26132.26758259  .00010940  00000+0  25303-3 0  9992
2 46504  97.8618 137.6580 0007640  92.2632 267.9489 15.42654533310233
NETSAT-3                
1 46505U 20068V   26132.24567249  .00011245  00000+0  27085-3 0  9996
2 46505  97.8668 135.8982 0007528 104.9461 255.2619 15.41423826310144
NETSAT-1                
1 46506U 20068W   26132.26252604  .00008205  00000+0  25389-3 0  9992
2 46506  97.8752 130.6611 0006722 124.0395 236.1485 15.33752446309797
NETSAT-2                
1 46507U 20068X   26132.28826124  .00014094  00000+0  30627-3 0  9993
2 46507  97.8634 137.4542 0006179 112.8559 247.3341 15.44454364310199
TIANQI-6                
1 46810U 20076D   26132.09972138  .00002308  00000+0  15295-3 0  9994
2 46810  34.9993 269.9031 0010556 214.5969 145.4055 15.06946153303135
KSM1-C                  
1 46906U 20081B   26132.11794264  .00005445  00000+0  20956-3 0  9996
2 46906  36.8939 281.5167 0002939 269.9049  90.1363 15.26148159303658
KSM1-D                  
1 46907U 20081C   26132.13841439  .00004786  00000+0  19560-3 0  9992
2 46907  36.8968 289.7187 0004956 306.0623  53.9666 15.24218192303594
KSM1-A                  
1 46912U 20081H   26132.10308191  .00004417  00000+0  17458-3 0  9993
2 46912  36.8967 283.7315 0002932 359.9787   0.0961 15.25403368303667
R2                      
1 46913U 20081J   26132.11245352  .00005029  00000+0  20105-3 0  9997
2 46913  36.8977 283.4769 0007610 330.2134  29.8181 15.24914355306472
KSM1-B                  
1 46914U 20081K   26132.13699167  .00004495  00000+0  18505-3 0  9994
2 46914  36.9022 290.2474 0006343 326.8998  33.1353 15.24017213306684
GONETS-M 20             
1 47227U 20091A   26132.26546627  .00000163  00000+0  11083-2 0  9990
2 47227  82.5043 324.7732 0019969 258.8287 101.0548 12.42893112246619
GONETS-M 21             
1 47228U 20091B   26132.31964192  .00000187  00000+0  12776-2 0  9994
2 47228  82.4965 323.4685 0013805 273.8038  86.1463 12.42885117246614
GONETS-M 22             
1 47229U 20091C   26132.29288405  .00000084  00000+0  53490-3 0  9993
2 47229  82.5024 324.3671 0020847 253.7766 106.1020 12.42890921246561
CUBEL                   
1 47448U 21006AM  26132.11654969  .00005435  00000+0  13637-3 0  9990
2 47448  97.2366 183.0610 0005040 312.0474  48.0343 15.40424322294207
ARKTIKA-M 1             
1 47719U 21016A   26129.11511190 -.00000078  00000+0  00000+0 0  9991
2 47719  63.2307  63.2755 7273343 269.7576  14.8669  2.00634688 38002
STARLINK-2342           
1 47883U 21021Z   26131.83613333  .00074898  00000+0  11199-2 0  9997
2 47883  53.1573 326.0131 0003415 202.9464 157.1395 15.54360628286212
GRUS-1B                 
1 47934U 21022C   26132.26228134  .00000166  00000+0  18446-4 0  9995
2 47934  97.5423  16.6349 0017185  80.3915 279.9249 14.98893350280514
UNISAT-7                
1 47945U 21022P   26132.29078749  .00008369  00000+0  21511-3 0  9994
2 47945  97.3922  36.8634 0008698 189.6145 170.4936 15.39501888284336
GLOBAL-9                
1 47971U 21023G   26132.25963525  .00012523  00000+0  26547-3 0  9996
2 47971  44.9807  92.2288 0002244  97.1126 263.0018 15.45148935289386
AII-BRAVO               
1 48270U 21034C   26132.14491951  .00002377  00000+0  18010-3 0  9990
2 48270  97.5657 187.8807 0007010  47.4240 312.7576 15.03196382274204
