OBJECT_NAME,OBJECT_ID,EPOCH,MEAN_MOTION,ECCENTRICITY,INCLINATION,RA_OF_ASC_NODE,ARG_OF_PERICENTER,MEAN_ANOMALY,EPHEMERIS_TYPE,CLASSIFICATION_TYPE,NORAD_CAT_ID,ELEMENT_SET_NO,REV_AT_EPOCH,BSTAR,MEAN_MOTION_DOT,MEAN_MOTION_DDOT
GONETS-M 17,2020-068A,2026-05-12T07:22:33.464064,12.42871798,.00232339,82.5019,9.8250,111.9884,248.3668,0,U,46486,999,25470,.17554095E-3,.34E-6,0
GONETS-M 18,2020-068B,2026-05-12T06:30:13.118688,12.42870499,.00205793,82.4972,8.9791,108.3490,251.9830,0,U,46487,999,25468,-.74614553E-3,-.93E-6,0
GONETS-M 19,2020-068C,2026-05-12T05:55:35.773248,12.42890933,.00141185,82.4997,9.4379,121.8783,238.3673,0,U,46488,999,25478,-.47085278E-4,.3E-7,0
DEKART,2020-068H,2026-05-12T06:25:04.980864,15.36503967,.00106476,97.8757,138.9900,60.6227,299.6078,0,U,46493,999,31025,.22002408E-3,.7761E-4,0
NORBI,2020-068J,2026-05-12T06:32:44.596032,15.46909066,.00076609,97.8651,145.1169,45.1639,315.0231,0,U,46494,999,31065,.27889118E-3,.13956E-3,0
SALSAT,2020-068K,2026-05-11T23:12:44.826336,15.29256423,.00115624,97.8861,132.8439,73.9396,286.3115,0,U,46495,999,30982,.18044399E-3,.5046E-4,0
ICEYE-X6,2020-068M,2026-05-12T06:35:39.793632,15.04322409,.00064937,98.0964,124.2385,199.6700,160.4275,0,U,46497,999,30783,.10638341E-3,.1415E-4,0
NETSAT-4,2020-068U,2026-05-12T06:25:19.135776,15.42654533,.00076405,97.8618,137.6580,92.2632,267.9489,0,U,46504,999,31023,.25303064E-3,.1094E-3,0
NETSAT-3,2020-068V,2026-05-12T05:53:46.103136,15.41423826,.00075282,97.8668,135.8982,104.9461,255.2619,0,U,46505,999,31014,.27085284E-3,.11245E-3,0
NETSAT-1,2020-068W,2026-05-12T06:18:02.249856,15.33752446,.00067221,97.8752,130.6611,124.0395,236.1485,0,U,46506,999,30979,.25388918E-3,.8205E-4,0
NETSAT-2,2020-068X,2026-05-12T06:55:05.771136,15.44454364,.00061794,97.8634,137.4542,112.8559,247.3341,0,U,46507,999,31019,.3062745E-3,.14094E-3,0
TIANQI-6,2020-076D,2026-05-12T02:23:35.927232,15.06946153,.00105563,34.9993,269.9031,214.5969,145.4055,0,U,46810,999,30313,.15294695E-3,.2308E-4,0
KSM1-C,2020-081B,2026-05-12T02:49:50.244096,15.26148159,.00029395,36.8939,281.5167,269.9049,90.1363,0,U,46906,999,30365,.20956218E-3,.5445E-4,0
KSM1-D,2020-081C,2026-05-12T03:19:19.003296,15.24218192,.00049562,36.8968,289.7187,306.0623,53.9666,0,U,46907,999,30359,.19560385E-3,.4786E-4,0
KSM1-A,2020-081H,2026-05-12T02:28:26.277024,15.25403368,.00029324,36.8967,283.7315,359.9787,0.0961,0,U,46912,999,30366,.17458267E-3,.4417E-4,0
R2,2020-081J,2026-05-12T02:41:55.984128,15.24914355,.000761,36.8977,283.4769,330.2134,29.8181,0,U,46913,999,30647,.20104647E-3,.5029E-4,0
KSM1-B,2020-081K,2026-05-12T03:17:16.080288,15.24017213,.00063434,36.9022,290.2474,326.8998,33.1353,0,U,46914,999,30668,.1850458E-3,.4495E-4,0
GONETS-M 20,2020-091A,2026-05-12T06:22:16.285728,12.42893112,.00199697,82.5043,324.7732,258.8287,101.0548,0,U,47227,999,24661,.11082537E-2,.163E-5,0
GONETS-M 21,2020-091B,2026-05-12T07:40:17.061888,12.42885117,.0013805,82.4965,323.4685,273.8038,86.1463,0,U,47228,999,24661,.12775875E-2,.187E-5,0
GONETS-M 22,2020-091C,2026-05-12T07:01:45.181920,12.42890921,.00208473,82.5024,324.3671,253.7766,106.1020,0,U,47229,999,24656,.53490015E-3,.84E-6,0
CUBEL,2021-006AM,2026-05-12T02:47:49.893216,15.40424322,.00050409,97.2366,183.0610,312.0474,48.0343,0,U,47448,999,29420,.13637483E-3,.5435E-4,0
ARKTIKA-M 1,2021-016A,2026-05-09T02:45:45.668160,2.00634688,.72733431,63.2307,63.2755,269.7576,14.8669,0,U,47719,999,3800,0,-.78E-6,0
STARLINK-2342,2021-021Z,2026-05-11T20:04:01.919712,15.54360628,.00034155,53.1573,326.0131,202.9464,157.1395,0,U,47883,999,28621,.11198515E-2,.74898E-3,0
GRUS-1B,2021-022C,2026-05-12T06:17:41.107776,14.98893350,.00171858,97.5423,16.6349,80.3915,279.9249,0,U,47934,999,28051,.18446409E-4,.166E-5,0
UNISAT-7,2021-022P,2026-05-12T06:58:44.039136,15.39501888,.00086982,97.3922,36.8634,189.6145,170.4936,0,U,47945,999,28433,.21510763E-3,.8369E-4,0
GLOBAL-9,2021-023G,2026-05-12T06:13:52.485600,15.45148935,.00022446,44.9807,92.2288,97.1126,263.0018,0,U,47971,999,28938,.26546676E-3,.12523E-3,0
AII-BRAVO,2021-034C,2026-05-12T03:28:41.045664,15.03196382,.00070101,97.5657,187.8807,47.4240,312.7576,0,U,48270,999,27420,.18010468E-3,.2377E-4,0
